0 BREEZE-M DEB (TANK)
1 39129U 13014C   13282.57118757  .00000570  00000-0  38952-3 0  1219
2 39129 049.3864 043.4552 6123426 071.7245 343.0498 03.80617258  6729
0 BREEZE-M DEB (TANK)
1 39129U 13014C   13283.35929382  .00000725  00000-0  45787-3 0  1227
2 39129 049.3851 043.0718 6123570 072.0651 342.9308 03.80619098  6755
0 BREEZE-M DEB (TANK)
1 39129U 13014C   13285.46089685  .00000898  00000-0  48014-3 0  1232
2 39129 049.3844 042.0164 6123900 072.9796 342.6194 03.80623168  6839
0 BREEZE-M DEB (TANK)
1 39129U 13014C   13287.56245380  .00001131  00000-0  54450-3 0  1244
2 39129 049.3826 040.9519 6124195 073.8919 342.2838 03.80628162  6913
0 BREEZE-M DEB (TANK)
1 39129U 13014C   13290.18936165  .00001136  00000-0  56882-3 0  1251
2 39129 049.3808 039.6189 6124517 075.0298 341.8565 03.80633844  7010
0 BREEZE-M DEB (TANK)
1 39129U 13014C   13291.50279196  .00001223  00000-0  65181-3 0  1262
2 39129 049.3830 038.9636 6124676 075.6038 341.6356 03.80637948  7068
0 BREEZE-M DEB (TANK)
1 39129U 13014C   13293.60426485  .00000757  00000-0  47726-3 0  1277
2 39129 049.3802 037.9056 6125075 076.5024 341.2847 03.80641103  7149
0 BREEZE-M DEB (TANK)
1 39129U 13014C   13295.70573436  .00000606  00000-0  43021-3 0  1287
2 39129 049.3790 036.8404 6125176 077.4089 340.9558 03.80644491  7220
